{
  "type": "FeatureCollection",
  "features": [
    {
      "type": "Feature",
      "properties": {
        "norad_id": 30941,
        "name": "FENGYUN 1C DEB",
        "group": "fengyun-1c-debris",
        "lat": -80.96501326210968,
        "lon": -88.82196696325704,
        "alt_km": 781.1089313675066,
        "timestamp": "2025-12-09T07:41:33.488120+00:00",
        "meta_object_name": "FENGYUN 1C DEB",
        "meta_object_id": "1999-025BAF",
        "meta_epoch": "2025-12-08T13:38:13.756992",
        "meta_mean_motion": 14.30976311,
        "meta_eccentricity": 0.0034393,
        "meta_inclination": 98.5439,
        "meta_ra_of_asc_node": 199.4565,
        "meta_arg_of_pericenter": 328.8313,
        "meta_mean_anomaly": 31.083,
        "meta_ephemeris_type": 0,
        "meta_classification_type": "U",
        "meta_norad_cat_id": 30941,
        "meta_element_set_no": 999,
        "meta_rev_at_epoch": 96566,
        "meta_bstar": 0.0027617,
        "meta_mean_motion_dot": 7.273e-05,
        "meta_mean_motion_ddot": 0,
        "tle_line1": "1 30941U 99025BAF 25342.56821478  .00007273  00000+0  27617-2 0  9992",
        "tle_line2": "2 30941  98.5439 199.4565 0034393 328.8313  31.0830 14.30976311965668"
      },
      "geometry": {
        "type": "Point",
        "coordinates": [
          -88.82196696325704,
          -80.96501326210968
        ]
      }
    },
    {
      "type": "Feature",
      "properties": {
        "norad_id": 30942,
        "name": "FENGYUN 1C DEB",
        "group": "fengyun-1c-debris",
        "lat": 59.19231531389272,
        "lon": 176.49816146610456,
        "alt_km": 737.6908771311419,
        "timestamp": "2025-12-09T07:41:33.488130+00:00",
        "meta_object_name": "FENGYUN 1C DEB",
        "meta_object_id": "1999-025BAG",
        "meta_epoch": "2025-12-08T11:28:32.856384",
        "meta_mean_motion": 14.14832557,
        "meta_eccentricity": 0.01379282,
        "meta_inclination": 98.6796,
        "meta_ra_of_asc_node": 340.8359,
        "meta_arg_of_pericenter": 118.4015,
        "meta_mean_anomaly": 33.0103,
        "meta_ephemeris_type": 0,
        "meta_classification_type": "U",
        "meta_norad_cat_id": 30942,
        "meta_element_set_no": 999,
        "meta_rev_at_epoch": 96584,
        "meta_bstar": 0.00036298233,
        "meta_mean_motion_dot": 7.26e-06,
        "meta_mean_motion_ddot": 0,
        "tle_line1": "1 30942U 99025BAG 25342.47815806  .00000726  00000+0  36298-3 0  9993",
        "tle_line2": "2 30942  98.6796 340.8359 0137928 118.4015  33.0103 14.14832557965849"
      },
      "geometry": {
        "type": "Point",
        "coordinates": [
          176.49816146610456,
          59.19231531389272
        ]
      }
    },
    {
      "type": "Feature",
      "properties": {
        "norad_id": 30943,
        "name": "FENGYUN 1C DEB",
        "group": "fengyun-1c-debris",
        "lat": -44.61830868147167,
        "lon": 168.55857531561716,
        "alt_km": 917.0106139948593,
        "timestamp": "2025-12-09T07:41:33.488140+00:00",
        "meta_object_name": "FENGYUN 1C DEB",
        "meta_object_id": "1999-025BAH",
        "meta_epoch": "2025-12-08T11:49:13.121472",
        "meta_mean_motion": 14.04481374,
        "meta_eccentricity": 0.005101,
        "meta_inclination": 98.797,
        "meta_ra_of_asc_node": 356.5458,
        "meta_arg_of_pericenter": 77.436,
        "meta_mean_anomaly": 283.2506,
        "meta_ephemeris_type": 0,
        "meta_classification_type": "U",
        "meta_norad_cat_id": 30943,
        "meta_element_set_no": 999,
        "meta_rev_at_epoch": 95682,
        "meta_bstar": 0.00042279872,
        "meta_mean_motion_dot": 6.4e-06,
        "meta_mean_motion_ddot": 0,
        "tle_line1": "1 30943U 99025BAH 25342.49251298  .00000640  00000+0  42280-3 0  9998",
        "tle_line2": "2 30943  98.7970 356.5458 0051010  77.4360 283.2506 14.04481374956823"
      },
      "geometry": {
        "type": "Point",
        "coordinates": [
          168.55857531561716,
          -44.61830868147167
        ]
      }
    },
    {
      "type": "Feature",
      "properties": {
        "norad_id": 30944,
        "name": "FENGYUN 1C DEB",
        "group": "fengyun-1c-debris",
        "lat": 1.2214878681944774,
        "lon": -140.97658832023137,
        "alt_km": 678.9866937229299,
        "timestamp": "2025-12-09T07:41:33.488151+00:00",
        "meta_object_name": "FENGYUN 1C DEB",
        "meta_object_id": "1999-025BAJ",
        "meta_epoch": "2025-12-08T15:02:46.006368",
        "meta_mean_motion": 14.52434851,
        "meta_eccentricity": 0.01493008,
        "meta_inclination": 98.8511,
        "meta_ra_of_asc_node": 38.1017,
        "meta_arg_of_pericenter": 113.0137,
        "meta_mean_anomaly": 39.4512,
        "meta_ephemeris_type": 0,
        "meta_classification_type": "U",
        "meta_norad_cat_id": 30944,
        "meta_element_set_no": 999,
        "meta_rev_at_epoch": 99016,
        "meta_bstar": 0.00030972597,
        "meta_mean_motion_dot": 1.405e-05,
        "meta_mean_motion_ddot": 0,
        "tle_line1": "1 30944U 99025BAJ 25342.62692137  .00001405  00000+0  30973-3 0  9991",
        "tle_line2": "2 30944  98.8511  38.1017 0149300 113.0137  39.4512 14.52434851990163"
      },
      "geometry": {
        "type": "Point",
        "coordinates": [
          -140.97658832023137,
          1.2214878681944774
        ]
      }
    },
    {
      "type": "Feature",
      "properties": {
        "norad_id": 30945,
        "name": "FENGYUN 1C DEB",
        "group": "fengyun-1c-debris",
        "lat": -27.644548253040487,
        "lon": 166.7487000523538,
        "alt_km": 819.3290847162834,
        "timestamp": "2025-12-09T07:41:33.488161+00:00",
        "meta_object_name": "FENGYUN 1C DEB",
        "meta_object_id": "1999-025BAK",
        "meta_epoch": "2025-12-08T12:50:52.676160",
        "meta_mean_motion": 14.29657767,
        "meta_eccentricity": 0.00307925,
        "meta_inclination": 99.3875,
        "meta_ra_of_asc_node": 350.874,
        "meta_arg_of_pericenter": 49.9915,
        "meta_mean_anomaly": 78.8544,
        "meta_ephemeris_type": 0,
        "meta_classification_type": "U",
        "meta_norad_cat_id": 30945,
        "meta_element_set_no": 999,
        "meta_rev_at_epoch": 96377,
        "meta_bstar": 0.0025476106,
        "meta_mean_motion_dot": 6.517e-05,
        "meta_mean_motion_ddot": 0,
        "tle_line1": "1 30945U 99025BAK 25342.53533190  .00006517  00000+0  25476-2 0  9995",
        "tle_line2": "2 30945  99.3875 350.8740 0030792  49.9915  78.8544 14.29657767963771"
      },
      "geometry": {
        "type": "Point",
        "coordinates": [
          166.7487000523538,
          -27.644548253040487
        ]
      }
    },
    {
      "type": "Feature",
      "properties": {
        "norad_id": 30946,
        "name": "FENGYUN 1C DEB",
        "group": "fengyun-1c-debris",
        "lat": -61.593453320576465,
        "lon": 115.39148155989602,
        "alt_km": 742.7787044565412,
        "timestamp": "2025-12-09T07:41:33.488171+00:00",
        "meta_object_name": "FENGYUN 1C DEB",
        "meta_object_id": "1999-025BAL",
        "meta_epoch": "2025-12-08T19:25:20.640288",
        "meta_mean_motion": 14.48110098,
        "meta_eccentricity": 0.00892676,
        "meta_inclination": 99.0399,
        "meta_ra_of_asc_node": 97.7259,
        "meta_arg_of_pericenter": 204.65,
        "meta_mean_anomaly": 307.6535,
        "meta_ephemeris_type": 0,
        "meta_classification_type": "U",
        "meta_norad_cat_id": 30946,
        "meta_element_set_no": 999,
        "meta_rev_at_epoch": 98294,
        "meta_bstar": 0.0015524219,
        "meta_mean_motion_dot": 6.027e-05,
        "meta_mean_motion_ddot": 0,
        "tle_line1": "1 30946U 99025BAL 25342.80926667  .00006027  00000+0  15524-2 0  9990",
        "tle_line2": "2 30946  99.0399  97.7259 0089267 204.6500 307.6535 14.48110098982948"
      },
      "geometry": {
        "type": "Point",
        "coordinates": [
          115.39148155989602,
          -61.593453320576465
        ]
      }
    },
    {
      "type": "Feature",
      "properties": {
        "norad_id": 30947,
        "name": "FENGYUN 1C DEB",
        "group": "fengyun-1c-debris",
        "lat": 46.168865619013935,
        "lon": 62.165150981650655,
        "alt_km": 799.6761870125983,
        "timestamp": "2025-12-09T07:41:33.488182+00:00",
        "meta_object_name": "FENGYUN 1C DEB",
        "meta_object_id": "1999-025BAM",
        "meta_epoch": "2025-12-08T16:02:15.904896",
        "meta_mean_motion": 14.38030564,
        "meta_eccentricity": 0.00957288,
        "meta_inclination": 98.8087,
        "meta_ra_of_asc_node": 232.2012,
        "meta_arg_of_pericenter": 259.9143,
        "meta_mean_anomaly": 99.1233,
        "meta_ephemeris_type": 0,
        "meta_classification_type": "U",
        "meta_norad_cat_id": 30947,
        "meta_element_set_no": 999,
        "meta_rev_at_epoch": 98434,
        "meta_bstar": 0.00061181175,
        "meta_mean_motion_dot": 1.903e-05,
        "meta_mean_motion_ddot": 0,
        "tle_line1": "1 30947U 99025BAM 25342.66823964  .00001903  00000+0  61181-3 0  9990",
        "tle_line2": "2 30947  98.8087 232.2012 0095728 259.9143  99.1233 14.38030564984340"
      },
      "geometry": {
        "type": "Point",
        "coordinates": [
          62.165150981650655,
          46.168865619013935
        ]
      }
    }
  ]
}